NORAD_CAT_ID,OBJECT_NAME,OBJECT_TYPE,EPOCH,MEAN_MOTION,ECCENTRICITY,INCLINATION,RA_OF_ASC_NODE,ARG_OF_PERICENTER,MEAN_ANOMALY,BSTAR,MEAN_MOTION_DOT,MEAN_MOTION_DDOT,TLE_LINE0,TLE_LINE1,TLE_LINE2,SEMIMAJOR_AXIS,PERIOD,APOGEE,PERIGEE,DECAYED
53011.0,STARLINK-4265,PAYLOAD,2024-04-18 17:52:28,15.08830515,0.0001168,53.2173,301.4024,89.0902,271.0224,5.2054e-05,5.41e-06,0.0,0 STARLINK-4265,1 53011U 22076AB  24109.74476907  .00000541  00000-0  52054-4 0  9997,2 53011  53.2173 301.4024 0001168  89.0902 271.0224 15.08830515 99294,6917.909,95.438,540.582,538.966,0.0
53011.0,STARLINK-4265,PAYLOAD,2024-04-19 12:57:05,15.08838448,0.00015,53.2175,297.8316,104.8858,255.23,0.00032682,4.917e-05,0.0,0 STARLINK-4265,1 53011U 22076AB  24110.53964804  .00004917  00000-0  32682-3 0  9999,2 53011  53.2175 297.8316 0001500 104.8858 255.2300 15.08838448 99410,6917.885,95.438,540.788,538.712,0.0
53011.0,STARLINK-4265,PAYLOAD,2024-04-19 19:18:37,15.08850071,0.0001582,53.2176,296.6423,104.5943,255.5224,0.00050098,7.696e-05,0.0,0 STARLINK-4265,1 53011U 22076AB  24110.80460558  .00007696  00000-0  50098-3 0  9994,2 53011  53.2176 296.6423 0001582 104.5943 255.5224 15.08850071 98984,6917.85,95.437,540.809,538.62,0.0
53011.0,STARLINK-4265,PAYLOAD,2024-04-20 12:47:51,15.08868901,0.0001508,53.2174,293.3679,106.267,253.8488,0.00053958,8.317e-05,0.0,0 STARLINK-4265,1 53011U 22076AB  24111.53323094  .00008317  00000-0  53958-3 0  9997,2 53011  53.2174 293.3679 0001508 106.2670 253.8488 15.08868901 99562,6917.792,95.436,540.7,538.614,0.0
53011.0,STARLINK-4265,PAYLOAD,2024-04-20 17:34:01,15.08823744,0.000157,53.2176,292.4777,91.9475,268.1697,-0.00087527,-0.00014185,0.0,0 STARLINK-4265,1 53011U 22076AB  24111.73196186 -.00014185  00000-0 -87527-3 0  9990,2 53011  53.2176 292.4777 0001570  91.9475 268.1697 15.08823744 99595,6917.93,95.439,540.881,538.709,0.0
53011.0,STARLINK-4265,PAYLOAD,2024-04-21 12:38:39,15.08824466,0.0001466,53.218,288.9163,88.2136,271.9024,9.327e-05,1.196e-05,0.0,0 STARLINK-4265,1 53011U 22076AB  24112.52684745  .00001196  00000-0  93270-4 0  9990,2 53011  53.2180 288.9163 0001466  88.2136 271.9024 15.08824466 99246,6917.928,95.439,540.807,538.779,0.0
53011.0,STARLINK-4265,PAYLOAD,2024-04-21 19:00:12,15.08839899,0.0001586,53.2177,287.7259,84.928,275.1893,0.0015682,0.00024758,0.0,0 STARLINK-4265,1 53011U 22076AB  24112.79180989  .00024758  00000-0  15682-2 0  9998,2 53011  53.2177 287.7259 0001586  84.9280 275.1893 15.08839899 99753,6917.881,95.438,540.843,538.649,0.0
53011.0,STARLINK-4265,PAYLOAD,2024-04-21 20:35:35,15.08845047,0.0001609,53.2178,287.4288,89.9346,270.1831,0.0016274,0.00025711,0.0,0 STARLINK-4265,1 53011U 22076AB  24112.85804916  .00025711  00000-0  16274-2 0  9996,2 53011  53.2178 287.4288 0001609  89.9346 270.1831 15.08845047 99295,6917.865,95.437,540.843,538.617,0.0
53011.0,STARLINK-4265,PAYLOAD,2024-04-22 18:50:59,15.08838091,0.0001647,53.217,283.2637,123.648,236.4669,0.00032796,4.935e-05,0.0,0 STARLINK-4265,1 53011U 22076AB  24113.78541246  .00004935  00000-0  32796-3 0  9996,2 53011  53.2170 283.2637 0001647 123.6480 236.4669 15.08838091 99909,6917.886,95.438,540.891,538.612,0.0
53011.0,STARLINK-4265,PAYLOAD,2024-04-23 10:44:50,15.08844503,0.0001568,53.2174,280.2875,123.5228,236.5914,0.00038479,5.842e-05,0.0,0 STARLINK-4265,1 53011U 22076AB  24114.44781158  .00005842  00000-0  38479-3 0  9990,2 53011  53.2174 280.2875 0001568 123.5228 236.5914 15.08844503 99533,6917.867,95.437,540.816,538.647,0.0
53011.0,STARLINK-4265,PAYLOAD,2024-04-23 18:41:46,15.08849447,0.0001457,53.2166,278.7996,121.9452,238.1682,0.00038666,5.873e-05,0.0,0 STARLINK-4265,1 53011U 22076AB  24114.77900954  .00005873  00000-0  38666-3 0  9995,2 53011  53.2166 278.7996 0001457 121.9452 238.1682 15.08849447 99585,6917.852,95.437,540.724,538.709,0.0
53011.0,STARLINK-4265,PAYLOAD,2024-04-24 10:35:38,15.08847242,0.0001576,53.2168,275.8349,80.4357,279.6813,0.00028115,4.19e-05,0.0,0 STARLINK-4265,1 53011U 22076AB  24115.44141298  .00004190  00000-0  28115-3 0  9997,2 53011  53.2168 275.8349 0001576  80.4357 279.6813 15.08847242100155,6917.858,95.437,540.814,538.633,0.0
53011.0,STARLINK-4265,PAYLOAD,2024-04-24 16:57:10,15.088397,0.0001445,53.2176,274.6387,92.007,268.1088,8.7694e-05,1.108e-05,0.0,0 STARLINK-4265,1 53011U 22076AB  24115.70637534  .00001108  00000-0  87694-4 0  9993,2 53011  53.2176 274.6387 0001445  92.0070 268.1088 15.08839700100190,6917.881,95.438,540.746,538.747,0.0
53011.0,STARLINK-4265,PAYLOAD,2024-04-25 15:12:34,15.08839666,0.0001426,53.2177,270.4748,100.6711,259.4441,4.1663e-05,3.75e-06,0.0,0 STARLINK-4265,1 53011U 22076AB  24116.63373613  .00000375  00000-0  41663-4 0  9992,2 53011  53.2177 270.4748 0001426 100.6711 259.4441 15.08839666 99861,6917.881,95.438,540.733,538.76,0.0
53011.0,STARLINK-4265,PAYLOAD,2024-04-25 16:47:57,15.08841547,0.0001322,53.2181,270.1773,77.1398,282.9742,3.2935e-05,2.36e-06,0.0,0 STARLINK-4265,1 53011U 22076AB  24116.69997573  .00000236  00000-0  32935-4 0  9993,2 53011  53.2181 270.1773 0001322  77.1398 282.9742 15.08841547 99872,6917.876,95.437,540.655,538.826,0.0
53011.0,STARLINK-4265,PAYLOAD,2024-04-26 10:17:12,15.08836093,0.0001332,53.2189,266.9098,82.2543,277.86,0.00014137,1.962e-05,0.0,0 STARLINK-4265,1 53011U 22076AB  24117.42861972  .00001962  00000-0  14137-3 0  9998,2 53011  53.2189 266.9098 0001332  82.2543 277.8600 15.08836093100456,6917.892,95.438,540.679,538.836,0.0
53011.0,STARLINK-4265,PAYLOAD,2024-04-26 13:27:59,15.08835925,0.0001279,53.2192,266.312,97.4461,262.6676,7.3171e-05,8.77e-06,0.0,0 STARLINK-4265,1 53011U 22076AB  24117.56109982  .00000877  00000-0  73171-4 0  9997,2 53011  53.2192 266.3120 0001279  97.4461 262.6676 15.08835925100006,6917.893,95.438,540.643,538.873,0.0
53011.0,STARLINK-4265,PAYLOAD,2024-04-26 16:38:45,15.0883982,0.0001295,53.2184,265.7166,104.4048,255.7088,0.00010555,1.392e-05,0.0,0 STARLINK-4265,1 53011U 22076AB  24117.69357679  .00001392  00000-0  10555-3 0  9998,2 53011  53.2184 265.7166 0001295 104.4048 255.7088 15.08839820100028,6917.881,95.438,540.642,538.85,0.0
53011.0,STARLINK-4265,PAYLOAD,2024-04-27 13:18:47,15.08828182,0.0001319,53.2195,261.8528,88.149,271.9653,1.5156e-05,-4.7e-07,0.0,0 STARLINK-4265,1 53011U 22076AB  24118.55471206 -.00000047  00000-0  15156-4 0  9997,2 53011  53.2195 261.8528 0001319  88.1490 271.9653 15.08828182100628,6917.917,95.438,540.694,538.869,0.0
53011.0,STARLINK-4265,PAYLOAD,2024-04-27 16:29:31,15.08851488,0.0001341,53.2189,261.2584,81.8352,278.2792,0.00021569,3.148e-05,0.0,0 STARLINK-4265,1 53011U 22076AB  24118.68717433  .00003148  00000-0  21569-3 0  9994,2 53011  53.2189 261.2584 0001341  81.8352 278.2792 15.08851488100640,6917.845,95.437,540.638,538.783,0.0
53011.0,STARLINK-4265,PAYLOAD,2024-04-28 02:01:49,15.08865553,0.0001632,53.2206,259.4752,80.1401,279.9775,0.00020491,2.977e-05,0.0,0 STARLINK-4265,1 53011U 22076AB  24119.08460248  .00002977  00000-0  20491-3 0  9990,2 53011  53.2206 259.4752 0001632  80.1401 279.9775 15.08865553100700,6917.802,95.436,540.796,538.538,0.0
53011.0,STARLINK-4265,PAYLOAD,2024-04-28 13:09:34,15.08826358,0.000156,53.2205,257.3947,107.3948,252.7215,1.155e-05,-1.04e-06,0.0,0 STARLINK-4265,1 53011U 22076AB  24119.54831040 -.00000104  00000-0  11550-4 0  9991,2 53011  53.2205 257.3947 0001560 107.3948 252.7215 15.08826358100775,6917.922,95.438,540.866,538.708,0.0
53011.0,STARLINK-4265,PAYLOAD,2024-04-28 14:44:57,15.0882793,0.0001635,53.2203,257.0972,109.2787,250.8382,2.6149e-05,1.28e-06,0.0,0 STARLINK-4265,1 53011U 22076AB  24119.61454946  .00000128  00000-0  26149-4 0  9990,2 53011  53.2203 257.0972 0001635 109.2787 250.8382 15.08827930100314,6917.917,95.438,540.913,538.651,0.0
53011.0,STARLINK-4265,PAYLOAD,2024-04-28 16:20:19,15.0883133,0.000155,53.2209,256.8016,110.9383,249.1775,5.184e-05,5.37e-06,0.0,0 STARLINK-4265,1 53011U 22076AB  24119.68078699  .00000537  00000-0  51840-4 0  9994,2 53011  53.2209 256.8016 0001550 110.9383 249.1775 15.08831330100320,6917.907,95.438,540.844,538.7,0.0
53011.0,STARLINK-4265,PAYLOAD,2024-04-29 01:52:37,15.08846966,0.0001254,53.2193,255.0122,88.2908,271.8228,8.6057e-05,1.082e-05,0.0,0 STARLINK-4265,1 53011U 22076AB  24120.07821472  .00001082  00000-0  86057-4 0  9998,2 53011  53.2193 255.0122 0001254  88.2908 271.8228 15.08846966100856,6917.859,95.437,540.592,538.857,0.0
53011.0,STARLINK-4265,PAYLOAD,2024-04-29 13:00:21,15.08841882,0.0001948,53.2215,252.9353,101.0148,259.1063,-0.00010554,-1.968e-05,0.0,0 STARLINK-4265,1 53011U 22076AB  24120.54191052 -.00001968  00000-0 -10554-3 0  9997,2 53011  53.2215 252.9353 0001948 101.0148 259.1063 15.08841882100929,6917.875,95.437,541.087,538.392,0.0
53011.0,STARLINK-4265,PAYLOAD,2024-04-29 14:35:44,15.08842805,0.0002,53.2223,252.6371,94.3768,265.7452,-0.00012714,-2.311e-05,0.0,0 STARLINK-4265,1 53011U 22076AB  24120.60815076 -.00002311  00000-0 -12714-3 0  9996,2 53011  53.2223 252.6371 0002000  94.3768 265.7452 15.08842805100467,6917.872,95.437,541.12,538.353,0.0
53011.0,STARLINK-4265,PAYLOAD,2024-04-29 19:21:52,15.08851313,0.0001379,53.2187,251.7395,90.4717,269.6433,-5.4542e-05,-1.156e-05,0.0,0 STARLINK-4265,1 53011U 22076AB  24120.80686076 -.00001156  00000-0 -54542-4 0  9996,2 53011  53.2187 251.7395 0001379  90.4717 269.6433 15.08851313100962,6917.846,95.437,540.665,538.757,0.0
53011.0,STARLINK-4265,PAYLOAD,2024-04-30 12:51:08,15.088131,6.35e-05,53.2182,248.4678,123.2221,236.8832,0.00036578,5.534e-05,0.0,0 STARLINK-4265,1 53011U 22076AB  24121.53551282  .00005534  00000-0  36578-3 0  9997,2 53011  53.2182 248.4678 0000635 123.2221 236.8832 15.08813100101077,6917.963,95.439,540.267,539.388,0.0
53011.0,STARLINK-4265,PAYLOAD,2024-04-30 14:26:31,15.08831436,0.0001406,53.2183,248.1751,68.5553,291.5589,6.8221e-05,7.98e-06,0.0,0 STARLINK-4265,1 53011U 22076AB  24121.60175202  .00000798  00000-0  68221-4 0  9997,2 53011  53.2183 248.1751 0001406  68.5553 291.5589 15.08831436100611,6917.907,95.438,540.744,538.799,0.0
